SL-16 R/B               
1 23405U 94077B   26194.12495675 -.00000191  00000+0 -73168-4 0  9993
2 23405  70.9823  88.5951 0004090 304.9983  55.0756 14.15574600633980
ARIANE 40+ R/B          
1 23561U 95021B   26194.17674780  .00000122  00000+0  52738-4 0  9999
2 23561  98.4401 263.8749 0007845 121.6463 264.6723 14.39846937637304
SL-16 R/B               
1 23705U 95058B   26194.63265168  .00000083  00000+0  66971-4 0  9996
2 23705  71.0211 275.8361 0014608 284.7733  75.1772 14.15508286585676
SL-16 R/B               
1 24298U 96051B   26194.58862989  .00000151  00000+0  10841-3 0  9996
2 24298  70.7647 268.7769 0017683 300.1634  59.7733 14.12455832539427
ORBVIEW 2 (SEASTAR)     
1 24883U 97037A   26194.43585221  .00000106  00000+0  53035-4 0  9999
2 24883  98.8711   2.1855 0003128  64.3180 295.8327 14.35566309526515
SL-16 R/B               
1 25400U 98043G   26194.46330750 -.00000007  00000+0  16118-4 0  9993
2 25400  98.8378 148.8507 0010132  16.3331 343.8173 14.26072537456914
SL-16 R/B               
1 25407U 98045B   26194.51115302 -.00000242  00000+0 -97978-4 0  9997
2 25407  71.0113 276.9701 0008288 209.1002 150.9660 14.16205880444919
ISS (ZARYA)             
1 25544U 98067A   26194.31484285  .00004029  00000+0  81266-4 0  9998
2 25544  51.6305 170.7871 0006687 290.3592  69.6678 15.48997295575806
CZ-4B R/B               
1 25732U 99025C   26194.09277617  .00000024  00000+0  32307-4 0  9999
2 25732  98.6473 235.2777 0036744 345.8565  40.8493 14.18287488405942
OKEAN-O                 
1 25860U 99039A   26194.63876691  .00000265  00000+0  41468-4 0  9998
2 25860  97.9303 253.1312 0000921  84.7411 275.3907 14.80496244453027
SL-16 R/B               
1 25861U 99039B   26194.63600256  .00000222  00000+0  34859-4 0  9990
2 25861  97.9824 253.4218 0014215 203.6406 156.4155 14.81869831455518
DELTA 2 R/B             
1 25876U 99041E   26194.29371298  .00001342  00000+0  25403-3 0  9990
2 25876  51.7612 159.4948 0501340 359.1428   0.8599 14.12079571380770
HELIOS 1B               
1 25977U 99064A   26194.60529213  .00000676  00000+0  79917-4 0  9993
2 25977  98.1587 100.5074 0002038  55.7879 304.3530 14.88072978703980
TERRA                   
1 25994U 99068A   26194.66709251  .00000193  00000+0  48320-4 0  9992
2 25994  97.9443 243.1616 0003348 125.8536 348.4092 14.61122991413473
SL-16 R/B               
1 26070U 00006B   26194.41784887 -.00000201  00000+0 -77539-4 0  9999
2 26070  71.0002 193.4702 0017124 342.4252  17.6277 14.15838417366355
TITAN 4B R/B            
1 26474U 00047B   26194.61734208  .00001286  00000+0  84888-4 0  9993
2 26474  67.9872  46.1699 0045864 260.3300  99.2667 15.10328673411922
ENVISAT                 
1 27386U 02009A   26194.47103339  .00000019  00000+0  20054-4 0  9993
2 27386  98.3846 145.2052 0001341  83.8219  24.8831 14.39070532277269
IDEFIX & ARIANE 42P R/B 
1 27422U 02021B   26194.41833193  .00000088  00000+0  49999-4 0  9995
2 27422  98.5943 131.6177 0011786 171.6602 188.4779 14.31093299262004
AQUA                    
1 27424U 02022A   26194.60434948  .00000366  00000+0  82492-4 0  9998
2 27424  98.4294 164.4181 0000889 109.9840 304.5267 14.62195665287131
CZ-4B R/B               
1 27432U 02024C   26194.63422001  .00000011  00000+0  28647-4 0  9998
2 27432  98.8687 247.2807 0050541  26.3955  88.9815 14.14568067247049
MIDORI II (ADEOS-II)    
1 27597U 02056A   26194.45853505  .00000099  00000+0  56521-4 0  9990
2 27597  98.7894 153.9439 0001552  42.9556 317.1746 14.29362567228269
H-2A R/B                
1 27601U 02056E   26194.46971866  .00000116  00000+0  54823-4 0  9991
2 27601  98.3328 150.1882 0070800 146.0159 326.1306 14.33833338232138
CZ-4B R/B               
1 28059U 03049C   26194.49893085  .00000141  00000+0  44003-4 0  9998
2 28059  98.6909 194.3943 0047537 206.4811 153.3956 14.55115425204896
CZ-2C R/B               
1 28222U 04012C   26194.16142575  .00100274  00000+0  42892-3 0  9997
2 28222  97.7067 272.9570 0011468 197.3679 162.7199 15.84778211224005
SL-16 R/B               
1 28353U 04021B   26194.60755374  .00000022  00000+0  35967-4 0  9994
2 28353  71.0027 328.2400 0006363 226.4712 133.5882 14.14616256140642
CZ-4B R/B               
1 28415U 04035C   26194.60630923  .00004243  00000+0  14260-3 0  9991
2 28415  97.3359 227.3865 0029142 238.5782 121.2609 15.30978169199160
CZ-2C R/B               
1 28480U 04046B   26194.62563683  .00000049  00000+0  32827-4 0  9995
2 28480  98.1919 101.7509 0140043 142.0118 219.1042 14.27032792126468
ARIANE 5 R/B            
1 28499U 04049H   26194.46770794  .00000277  00000+0  37476-4 0  9991
2 28499  98.2739   7.7397 0082712 303.9645  55.3727 14.85477864164469
CZ-2D R/B               
1 28738U 05024B   26194.01573357  .00054658  00000+0  40848-3 0  9996
2 28738  97.3471 214.7884 0002036 197.1497 162.9698 15.72551891159396
ALOS (DAICHI)           
1 28931U 06002A   26194.43148901  .00000487  00000+0  89263-4 0  9993
2 28931  98.1337 149.9197 0000812  95.8759 264.2539 14.70099841 91958
